*******************************************************************************
JPL/HORIZONS               195 Eurykleia (A879 HA)         2020-Jun-22 08:37:43
Rec #:     195 (+COV) Soln.date: 2020-May-20_01:00:42   # obs: 3176 (1884-2020)
 
IAU76/J2000 helio. ecliptic osc. elements (au, days, deg., period=Julian yrs):
 
  EPOCH=  2455991.5 ! 2012-Mar-05.00 (TDB)         Residual RMS= .31061
   EC= .04311988912308064  QR= 2.753309942520699   TP= 2455269.3536942452
   OM= 7.079521769632799   W=  121.8996678497306   IN= 6.965909164040613
   A= 2.877382350436218    MA= 145.8253087946833   ADIST= 3.001454758351736
   PER= 4.88095            N= .201933187           ANGMOM= .02915252
   DAN= 2.939              DDN= 2.80805            L= 129.1699412
   B= 5.9097959            MOID= 1.77481997        TP= 2010-Mar-13.8536942452
 
Asteroid physical parameters (km, seconds, rotational period in hours):
   GM= n.a.                RAD= 46.5545            ROTPER= 16.521
   H= 9.2                  G= .150                 B-V= .704
                           ALBEDO= .051            STYP= Ch
 
ASTEROID comments: 
1: soln ref.= JPL#40, OCC=0
2: source=ORB
*******************************************************************************
 
 
*******************************************************************************
Ephemeris / WWW_USER Mon Jun 22 08:37:43 2020 Pasadena, USA      / Horizons
*******************************************************************************
Target body name: 195 Eurykleia (A879 HA)         {source: JPL#40}
Center body name: Solar System Barycenter (0)     {source: DE431}
Center-site name: BODY CENTER
*******************************************************************************
Start time      : A.D. 1969-Jun-28 00:00:00.0000 TDB
Stop  time      : A.D. 2071-May-04 00:00:00.0000 TDB
Step-size       : 7200 minutes
*******************************************************************************
Center geodetic : 0.00000000,0.00000000,0.0000000 {E-lon(deg),Lat(deg),Alt(km)}
Center cylindric: 0.00000000,0.00000000,0.0000000 {E-lon(deg),Dxy(km),Dz(km)}
Center radii    : (undefined)                                                  
Small perturbers: Yes                             {source: SB431-N16}
Output units    : AU-D
Output type     : GEOMETRIC cartesian states
Output format   : 2 (position and velocity)
Reference frame : Ecliptic of J2000.0
*******************************************************************************
Initial IAU76/J2000 heliocentric ecliptic osculating elements (au, days, deg.):
  EPOCH=  2455991.5 ! 2012-Mar-05.00 (TDB)         Residual RMS= .31061        
   EC= .04311988912308064  QR= 2.753309942520699   TP= 2455269.3536942452      
   OM= 7.079521769632799   W=  121.8996678497306   IN= 6.965909164040613       
  Equivalent ICRF heliocentric equatorial cartesian coordinates (au, au/d):
   X= 3.844266507415877E-01  Y=-2.548561836635939E+00  Z=-1.499059667732150E+00
  VX= 9.724162227190398E-03 VY= 9.655979014036647E-04 VZ= 3.969845894075965E-04
Asteroid physical parameters (km, seconds, rotational period in hours):        
   GM= n.a.                RAD= 46.5545            ROTPER= 16.521              
   H= 9.2                  G= .150                 B-V= .704                   
                           ALBEDO= .051            STYP= Ch                    
*******************************************************************************
            JDTDB,            Calendar Date (TDB),        delta-T,                      X,                      Y,                      Z,                     VX,                     VY,                     VZ,
******************************************************************************************************************************************************************************************************************
$$SOE
2456780.500000000, A.D. 2014-May-03 00:00:00.0000,      67.185443,  9.635886654346782E-01,  2.618029709628806E+00,  3.031313201364251E-01, -9.877970948420267E-03,  3.163351546362843E-03,  5.315456656383920E-04,
2456785.500000000, A.D. 2014-May-08 00:00:00.0000,      67.185371,  9.140404518158918E-01,  2.633407438182467E+00,  3.057381553571009E-01, -9.940782769145066E-03,  2.987509376557054E-03,  5.111524366751287E-04,
2456790.500000000, A.D. 2014-May-13 00:00:00.0000,      67.185288,  8.641861843664699E-01,  2.647902546871914E+00,  3.082424900771869E-01, -1.000038665184154E-02,  2.810313327419964E-03,  4.905465567977054E-04,
2456795.500000000, A.D. 2014-May-18 00:00:00.0000,      67.185195,  8.140419893023958E-01,  2.661508413050763E+00,  3.106432775296230E-01, -1.005674816865968E-02,  2.631822268277037E-03,  4.697346442721815E-04,
2456800.500000000, A.D. 2014-May-23 00:00:00.0000,      67.185095,  7.636241622129275E-01,  2.674218710941919E+00,  3.129395043861949E-01, -1.010983400384914E-02,  2.452096074350383E-03,  4.487234560806192E-04,
2456805.500000000, A.D. 2014-May-28 00:00:00.0000,      67.184989,  7.129491624149191E-01,  2.686027416618173E+00,  3.151301914465442E-01, -1.015961198775819E-02,  2.271195606925450E-03,  4.275198860500798E-04,
2456810.500000000, A.D. 2014-Jun-02 00:00:00.0000,      67.184876,  6.620336071379260E-01,  2.696928812879479E+00,  3.172143943172271E-01, -1.020605113056583E-02,  2.089182691878957E-03,  4.061309627542605E-04,
2456815.500000000, A.D. 2014-Jun-07 00:00:00.0000,      67.184756,  6.108942655411184E-01,  2.706917494019232E+00,  3.191912040798277E-01, -1.024912165581435E-02,  1.906120096783298E-03,  3.845638472380394E-04,
2456820.500000000, A.D. 2014-Jun-12 00:00:00.0000,      67.184629,  5.595480525632458E-01,  2.715988370472813E+00,  3.210597479473031E-01, -1.028879503363514E-02,  1.722071506729055E-03,  3.628258305884944E-04,
2456825.500000000, A.D. 2014-Jun-17 00:00:00.0000,      67.184497,  5.080120226074600E-01,  2.724136673342158E+00,  3.228191899078121E-01, -1.032504401356840E-02,  1.537101498908535E-03,  3.409243313571455E-04,
2456830.500000000, A.D. 2014-Jun-22 00:00:00.0000,      67.184363,  4.563033630631987E-01,  2.731357958790161E+00,  3.244687313552828E-01, -1.035784265690734E-02,  1.351275515969645E-03,  3.188668928337701E-04,
2456835.500000000, A.D. 2014-Jun-27 00:00:00.0000,      67.184228,  4.044393876676681E-01,  2.737648112298794E+00,  3.260076117059840E-01, -1.038716636850578E-02,  1.164659838149880E-03,  2.966611801733445E-04,
2456840.500000000, A.D. 2014-Jul-02 00:00:00.0000,      67.184091,  3.524375297097337E-01,  2.743003352784875E+00,  3.274351090003653E-01, -1.041299192799624E-02,  9.773215542057279E-04,  2.743149773792657E-04,
2456845.500000000, A.D. 2014-Jul-07 00:00:00.0000,      67.183953,  3.003153350793284E-01,  2.747420236567514E+00,  3.287505404894675E-01, -1.043529752035601E-02,  7.893285311584235E-04,  2.518361841471157E-04,
2456850.500000000, A.D. 2014-Jul-12 00:00:00.0000,      67.183814,  2.480904551657920E-01,  2.750895661181382E+00,  3.299532632052114E-01, -1.045406276575682E-02,  6.007493828797596E-04,  2.292328125733100E-04,
2456855.500000000, A.D. 2014-Jul-17 00:00:00.0000,      67.183676,  1.957806396088930E-01,  2.753426869030069E+00,  3.310426745138988E-01, -1.046926874863066E-02,  4.116534375490026E-04,  2.065129837331479E-04,
2456860.500000000, A.D. 2014-Jul-22 00:00:00.0000,      67.183541,  1.434037289066283E-01,  2.755011450874032E+00,  3.320182126522935E-01, -1.048089804587985E-02,  2.221107040550080E-04,  1.836849241360378E-04,
2456865.500000000, A.D. 2014-Jul-27 00:00:00.0000,      67.183411,  9.097764688436481E-02,  2.755647349148224E+00,  3.328793572456933E-01, -1.048893475409204E-02,  3.219183749096394E-05,  1.607569620662499E-04,
2456870.500000000, A.D. 2014-Aug-01 00:00:00.0000,      67.183286,  3.852039303114402E-02,  2.755332861105117E+00,  3.336256298073545E-01, -1.049336451536739E-02, -1.580318962329339E-04,  1.377375237644225E-04,
2456875.500000000, A.D. 2014-Aug-06 00:00:00.0000,      67.183164, -1.394996528878240E-02,  2.754066641776925E+00,  3.342565942180517E-01, -1.049417454141581E-02, -3.484886575376065E-04,  1.146351292653592E-04,
2456880.500000000, A.D. 2014-Aug-11 00:00:00.0000,      67.183047, -6.641530074191376E-02,  2.751847706745491E+00,  3.347718571837274E-01, -1.049135363666230E-02, -5.391060729735133E-04,  9.145838781337499E-05,
2456885.500000000, A.D. 2014-Aug-16 00:00:00.0000,      67.182936, -1.188574340465065E-01,  2.748675434708604E+00,  3.351710686696741E-01, -1.048489222116634E-02, -7.298112765287435E-04,  6.821599311073770E-05,
2456890.500000000, A.D. 2014-Aug-21 00:00:00.0000,      67.182835, -1.712581421065144E-01,  2.744549569838755E+00,  3.354539223108644E-01, -1.047478235272230E-02, -9.205309513389484E-04,  4.491671851726505E-05,
2456895.500000000, A.D. 2014-Aug-26 00:00:00.0000,      67.182744, -2.235991662528342E-01,  2.739470223931433E+00,  3.356201557979530E-01, -1.046101774768919E-02, -1.111191372260750E-03,  2.156941210975973E-05,
2456900.500000000, A.D. 2014-Aug-31 00:00:00.0000,      67.182661, -2.758622205859422E-01,  2.733437878337783E+00,  3.356695512382458E-01, -1.044359380075060E-02, -1.301718449525512E-03, -1.817008375343763E-06,
2456905.500000000, A.D. 2014-Sep-05 00:00:00.0000,      67.182586, -3.280290004147770E-01,  2.726453385676950E+00,  3.356019354912724E-01, -1.042250760362992E-02, -1.492037773148864E-03, -2.523356063419425E-05,
2456910.500000000, A.D. 2014-Sep-10 00:00:00.0000,      67.182521, -3.800811907861519E-01,  2.718517971325062E+00,  3.354171804788796E-01, -1.039775796254405E-02, -1.682074657845895E-03, -4.867120289609691E-05,
2456915.500000000, A.D. 2014-Sep-15 00:00:00.0000,      67.182466, -4.320004750977879E-01,  2.709633234678470E+00,  3.351152034697480E-01, -1.036934541416678E-02, -1.871754188421248E-03, -7.212083905842263E-05,
